[
    {
        "Altitude(m)": 704454.63390882,
        "Argument of Periapsis(deg)": 0.0022780242373254137,
        "Eccentricity": 0.0,
        "Inclination(deg)": 45.0,
        "Latitude(deg)": 31.128228392619643,
        "Longitude(deg)": -122.04784224603105,
        "Mean Anomaly(deg)": 133.21574332949623,
        "RAAN(deg)": 194.9978496117084,
        "Satellite Name": "Constellation 1 866",
        "Satellite Number": 866,
        "Semi-Major Axis(m)": 7083131.272910544,
        "Time(s)": 38
    },
    {
        "Altitude(m)": 704448.7849827125,
        "Argument of Periapsis(deg)": 0.002337972243570819,
        "Eccentricity": 0.0,
        "Inclination(deg)": 45.0,
        "Latitude(deg)": 31.093741771703062,
        "Longitude(deg)": -121.99356984860314,
        "Mean Anomaly(deg)": 133.27644446974608,
        "RAAN(deg)": 194.9977930225428,
        "Satellite Name": "Constellation 1 866",
        "Satellite Number": 866,
        "Semi-Major Axis(m)": 7083131.272910544,
        "Time(s)": 39
    },
    {
        "Altitude(m)": 704442.9391361417,
        "Argument of Periapsis(deg)": 0.0023979202498162246,
        "Eccentricity": 0.0,
        "Inclination(deg)": 45.0,
        "Latitude(deg)": 31.05922855642594,
        "Longitude(deg)": -121.93933960320746,
        "Mean Anomaly(deg)": 133.33714560999599,
        "RAAN(deg)": 194.99773643337724,
        "Satellite Name": "Constellation 1 866",
        "Satellite Number": 866,
        "Semi-Major Axis(m)": 7083131.272910544,
        "Time(s)": 40
    },
    {
        "Altitude(m)": 704437.096408483,
        "Argument of Periapsis(deg)": 0.00245786825606163,
        "Eccentricity": 0.0,
        "Inclination(deg)": 45.0,
        "Latitude(deg)": 31.024688801444857,
        "Longitude(deg)": -121.88515145435258,
        "Mean Anomaly(deg)": 133.39784675024586,
        "RAAN(deg)": 194.99767984421166,
        "Satellite Name": "Constellation 1 866",
        "Satellite Number": 866,
        "Semi-Major Axis(m)": 7083131.272910544,
        "Time(s)": 41
    },
    {
        "Altitude(m)": 704431.2568391236,
        "Argument of Periapsis(deg)": 0.002517816262307036,
        "Eccentricity": 0.0,
        "Inclination(deg)": 45.0,
        "Latitude(deg)": 30.990122561343043,
        "Longitude(deg)": -121.83100534646643,
        "Mean Anomaly(deg)": 133.45854789049577,
        "RAAN(deg)": 194.9976232550461,
        "Satellite Name": "Constellation 1 866",
        "Satellite Number": 866,
        "Semi-Major Axis(m)": 7083131.272910544,
        "Time(s)": 42
    },
    {
        "Altitude(m)": 704425.4204674396,
        "Argument of Periapsis(deg)": 0.0025777642685524413,
        "Eccentricity": 0.0,
        "Inclination(deg)": 45.0,
        "Latitude(deg)": 30.955529890630427,
        "Longitude(deg)": -121.7769012238972,
        "Mean Anomaly(deg)": 133.51924903074564,
        "RAAN(deg)": 194.9975666658805,
        "Satellite Name": "Constellation 1 866",
        "Satellite Number": 866,
        "Semi-Major Axis(m)": 7083131.272910544,
        "Time(s)": 43
    },
    {
        "Altitude(m)": 704419.5873328116,
        "Argument of Periapsis(deg)": 0.002637712274797847,
        "Eccentricity": 0.0,
        "Inclination(deg)": 45.0,
        "Latitude(deg)": 30.920910843743876,
        "Longitude(deg)": -121.72283919901126,
        "Mean Anomaly(deg)": 133.57995017099557,
        "RAAN(deg)": 194.99751007671495,
        "Satellite Name": "Constellation 1 866",
        "Satellite Number": 866,
        "Semi-Major Axis(m)": 7083131.272910544,
        "Time(s)": 44
    },
    {
        "Altitude(m)": 704413.757474625,
        "Argument of Periapsis(deg)": 0.0026976602810432526,
        "Eccentricity": 0.0,
        "Inclination(deg)": 45.0,
        "Latitude(deg)": 30.886265475046375,
        "Longitude(deg)": -121.66881887980595,
        "Mean Anomaly(deg)": 133.6406513112454,
        "RAAN(deg)": 194.99745348754936,
        "Satellite Name": "Constellation 1 866",
        "Satellite Number": 866,
        "Semi-Major Axis(m)": 7083131.272910544,
        "Time(s)": 45
    },
    {
        "Altitude(m)": 704407.9309322628,
        "Argument of Periapsis(deg)": 0.0027576082872886585,
        "Eccentricity": 0.0,
        "Inclination(deg)": 45.0,
        "Latitude(deg)": 30.851593838828062,
        "Longitude(deg)": -121.61484037849168,
        "Mean Anomaly(deg)": 133.70135245149538,
        "RAAN(deg)": 194.9973968983838,
        "Satellite Name": "Constellation 1 866",
        "Satellite Number": 866,
        "Semi-Major Axis(m)": 7083131.272910544,
        "Time(s)": 46
    },
    {
        "Altitude(m)": 704402.1077451002,
        "Argument of Periapsis(deg)": 0.0028175562935340644,
        "Eccentricity": 0.0,
        "Inclination(deg)": 45.0,
        "Latitude(deg)": 30.816895989305774,
        "Longitude(deg)": -121.56090363910579,
        "Mean Anomaly(deg)": 133.76205359174526,
        "RAAN(deg)": 194.99734030921826,
        "Satellite Name": "Constellation 1 866",
        "Satellite Number": 866,
        "Semi-Major Axis(m)": 7083131.272910544,
        "Time(s)": 47
    },
    {
        "Altitude(m)": 704396.2879525285,
        "Argument of Periapsis(deg)": 0.00287750429977947,
        "Eccentricity": 0.0,
        "Inclination(deg)": 45.0,
        "Latitude(deg)": 30.782171980623037,
        "Longitude(deg)": -121.50700860560949,
        "Mean Anomaly(deg)": 133.82275473199513,
        "RAAN(deg)": 194.99728372005265,
        "Satellite Name": "Constellation 1 866",
        "Satellite Number": 866,
        "Semi-Major Axis(m)": 7083131.272910544,
        "Time(s)": 48
    },
    {
        "Altitude(m)": 704390.4715939229,
        "Argument of Periapsis(deg)": 0.002937452306024875,
        "Eccentricity": 0.0,
        "Inclination(deg)": 45.0,
        "Latitude(deg)": 30.74742186684996,
        "Longitude(deg)": -121.45315522188871,
        "Mean Anomaly(deg)": 133.88345587224507,
        "RAAN(deg)": 194.9972271308871,
        "Satellite Name": "Constellation 1 866",
        "Satellite Number": 866,
        "Semi-Major Axis(m)": 7083131.272910544,
        "Time(s)": 49
    },
    {
        "Altitude(m)": 704384.6587086718,
        "Argument of Periapsis(deg)": 0.0029974003122702807,
        "Eccentricity": 0.0,
        "Inclination(deg)": 45.0,
        "Latitude(deg)": 30.712645701983657,
        "Longitude(deg)": -121.39934343175554,
        "Mean Anomaly(deg)": 133.94415701249494,
        "RAAN(deg)": 194.99717054172152,
        "Satellite Name": "Constellation 1 866",
        "Satellite Number": 866,
        "Semi-Major Axis(m)": 7083131.272910544,
        "Time(s)": 50
    },
    {
        "Altitude(m)": 704378.8493361502,
        "Argument of Periapsis(deg)": 0.0030573483185156866,
        "Eccentricity": 0.0,
        "Inclination(deg)": 45.0,
        "Latitude(deg)": 30.677843539947695,
        "Longitude(deg)": -121.34557317894787,
        "Mean Anomaly(deg)": 134.00485815274487,
        "RAAN(deg)": 194.99711395255596,
        "Satellite Name": "Constellation 1 866",
        "Satellite Number": 866,
        "Semi-Major Axis(m)": 7083131.272910544,
        "Time(s)": 51
    },
    {
        "Altitude(m)": 704373.0435157412,
        "Argument of Periapsis(deg)": 0.003117296324761092,
        "Eccentricity": 0.0,
        "Inclination(deg)": 45.0,
        "Latitude(deg)": 30.643015434592815,
        "Longitude(deg)": -121.29184457522808,
        "Mean Anomaly(deg)": 134.06555929299472,
        "RAAN(deg)": 194.99705736339035,
        "Satellite Name": "Constellation 1 866",
        "Satellite Number": 866,
        "Semi-Major Axis(m)": 7083131.272910544,
        "Time(s)": 52
    },
    {
        "Altitude(m)": 704367.2412868254,
        "Argument of Periapsis(deg)": 0.0031772443310064975,
        "Eccentricity": 0.0,
        "Inclination(deg)": 45.0,
        "Latitude(deg)": 30.608161439695834,
        "Longitude(deg)": -121.23815722799549,
        "Mean Anomaly(deg)": 134.12626043324468,
        "RAAN(deg)": 194.9970007742248,
        "Satellite Name": "Constellation 1 866",
        "Satellite Number": 866,
        "Semi-Major Axis(m)": 7083131.272910544,
        "Time(s)": 53
    },
    {
        "Altitude(m)": 704361.4426887821,
        "Argument of Periapsis(deg)": 0.0032371923372519038,
        "Eccentricity": 0.0,
        "Inclination(deg)": 45.0,
        "Latitude(deg)": 30.573281608961075,
        "Longitude(deg)": -121.1845112488691,
        "Mean Anomaly(deg)": 134.18696157349456,
        "RAAN(deg)": 194.99694418505925,
        "Satellite Name": "Constellation 1 866",
        "Satellite Number": 866,
        "Semi-Major Axis(m)": 7083131.272910544,
        "Time(s)": 54
    },
    {
        "Altitude(m)": 704355.6477609817,
        "Argument of Periapsis(deg)": 0.0032971403434973088,
        "Eccentricity": 0.0,
        "Inclination(deg)": 45.0,
        "Latitude(deg)": 30.538375996019287,
        "Longitude(deg)": -121.13090658130001,
        "Mean Anomaly(deg)": 134.24766271374443,
        "RAAN(deg)": 194.99688759589367,
        "Satellite Name": "Constellation 1 866",
        "Satellite Number": 866,
        "Semi-Major Axis(m)": 7083131.272910544,
        "Time(s)": 55
    },
    {
        "Altitude(m)": 704349.8565428025,
        "Argument of Periapsis(deg)": 0.0033570883497427146,
        "Eccentricity": 0.0,
        "Inclination(deg)": 45.0,
        "Latitude(deg)": 30.503444654428122,
        "Longitude(deg)": -121.07734316866951,
        "Mean Anomaly(deg)": 134.30836385399442,
        "RAAN(deg)": 194.99683100672812,
        "Satellite Name": "Constellation 1 866",
        "Satellite Number": 866,
        "Semi-Major Axis(m)": 7083131.272910544,
        "Time(s)": 56
    }
]